2025-313AC              
1 67274U 25313AC  26008.53917853  .00008378  00000+0  39004-3 0  9991
2 67274  97.4112  85.8183 0014731 199.1958 160.8724 15.20079413  1677
2025-313AD              
1 67275U 25313AD  26008.47297727  .00008628  00000+0  40102-3 0  9995
2 67275  97.4086  85.7512 0013953 202.3850 157.6778 15.20133372  1663
2025-313AE              
1 67276U 25313AE  26008.47294894  .00008638  00000+0  40149-3 0  9990
2 67276  97.4091  85.7511 0013877 202.3658 157.6973 15.20137092  1660
2025-313AF              
1 67277U 25313AF  26008.60468796  .00008260  00000+0  38430-3 0  9991
2 67277  97.4094  85.8810 0013865 201.7401 158.3247 15.20113625  1683
2025-313AG              
1 67278U 25313AG  26008.47294031  .00008014  00000+0  37284-3 0  9999
2 67278  97.4096  85.7523 0013832 202.1263 157.9377 15.20126006  1676
GALAPAGOS-UTE-SWSU      
1 67279U 25313AH  26008.47263843  .00009138  00000+0  42376-3 0  9993
2 67279  97.4109  85.7537 0014379 199.1905 160.8791 15.20188952  1662
2025-313AJ              
1 67280U 25313AJ  26008.53587445  .00006055  00000+0  27952-3 0  9997
2 67280  97.4176  85.8195 0013303 195.3334 164.7501 15.20507390  1673
2025-313AK              
1 67281U 25313AK  26008.53522540  .00006065  00000+0  27933-3 0  9993
2 67281  97.4059  85.8145 0012024 193.9971 166.0933 15.20598405  1670
2025-313AL              
1 67282U 25313AL  26008.53265699  .00006863  00000+0  31233-3 0  9997
2 67282  97.4109  85.8131 0010788 192.7851 167.3113 15.20975264  1677
2025-313AM              
1 67283U 25313AM  26008.46654998  .00010264  00000+0  46416-3 0  9993
2 67283  97.4118  85.7501 0010724 192.8841 167.2123 15.21063435  1666
2025-313AN              
1 67284U 25313AN  26008.53259699  .00004299  00000+0  19704-3 0  9992
2 67284  97.4103  85.8120 0010648 192.9561 167.1403 15.20949645  1670
2025-313AP              
1 67285U 25313AP  26008.53180730  .00009978  00000+0  45044-3 0  9997
2 67285  97.4095  85.8115 0010317 194.3005 165.7941 15.21135072  1670
