CCSDS_OMM_VERS = 2.0
CREATION_DATE  = 
ORIGINATOR     = 

OBJECT_NAME    = 2025-313AC
OBJECT_ID      = 2025-313AC
CENTER_NAME    = EARTH
REF_FRAME      = TEME
TIME_SYSTEM    = UTC
MEAN_ELEMENT_THEORY = SGP/SGP4

EPOCH          = 2026-01-08T12:56:25.024992
MEAN_MOTION    = 15.20079413
ECCENTRICITY   = .00147318
INCLINATION    = 97.4112
RA_OF_ASC_NODE = 85.8183
ARG_OF_PERICENTER = 199.1958
MEAN_ANOMALY   = 160.8724

EPHEMERIS_TYPE = 0
CLASSIFICATION_TYPE = U
NORAD_CAT_ID   = 67274
ELEMENT_SET_NO = 999
REV_AT_EPOCH   = 167
BSTAR          = .39003599E-3
MEAN_MOTION_DOT = .8378E-4
MEAN_MOTION_DDOT = 0

CCSDS_OMM_VERS = 2.0
CREATION_DATE  = 
ORIGINATOR     = 

OBJECT_NAME    = 2025-313AD
OBJECT_ID      = 2025-313AD
CENTER_NAME    = EARTH
REF_FRAME      = TEME
TIME_SYSTEM    = UTC
MEAN_ELEMENT_THEORY = SGP/SGP4

EPOCH          = 2026-01-08T11:21:05.236128
MEAN_MOTION    = 15.20133372
ECCENTRICITY   = .00139537
INCLINATION    = 97.4086
RA_OF_ASC_NODE = 85.7512
ARG_OF_PERICENTER = 202.3850
MEAN_ANOMALY   = 157.6778

EPHEMERIS_TYPE = 0
CLASSIFICATION_TYPE = U
NORAD_CAT_ID   = 67275
ELEMENT_SET_NO = 999
REV_AT_EPOCH   = 166
BSTAR          = .4010232E-3
MEAN_MOTION_DOT = .8628E-4
MEAN_MOTION_DDOT = 0

CCSDS_OMM_VERS = 2.0
CREATION_DATE  = 
ORIGINATOR     = 

OBJECT_NAME    = 2025-313AE
OBJECT_ID      = 2025-313AE
CENTER_NAME    = EARTH
REF_FRAME      = TEME
TIME_SYSTEM    = UTC
MEAN_ELEMENT_THEORY = SGP/SGP4

EPOCH          = 2026-01-08T11:21:02.788416
MEAN_MOTION    = 15.20137092
ECCENTRICITY   = .00138773
INCLINATION    = 97.4091
RA_OF_ASC_NODE = 85.7511
ARG_OF_PERICENTER = 202.3658
MEAN_ANOMALY   = 157.6973

EPHEMERIS_TYPE = 0
CLASSIFICATION_TYPE = U
NORAD_CAT_ID   = 67276
ELEMENT_SET_NO = 999
REV_AT_EPOCH   = 166
BSTAR          = .40148577E-3
MEAN_MOTION_DOT = .8638E-4
MEAN_MOTION_DDOT = 0

CCSDS_OMM_VERS = 2.0
CREATION_DATE  = 
ORIGINATOR     = 

OBJECT_NAME    = 2025-313AF
OBJECT_ID      = 2025-313AF
CENTER_NAME    = EARTH
REF_FRAME      = TEME
TIME_SYSTEM    = UTC
MEAN_ELEMENT_THEORY = SGP/SGP4

EPOCH          = 2026-01-08T14:30:45.039744
MEAN_MOTION    = 15.20113625
ECCENTRICITY   = .00138652
INCLINATION    = 97.4094
RA_OF_ASC_NODE = 85.8810
ARG_OF_PERICENTER = 201.7401
MEAN_ANOMALY   = 158.3247

EPHEMERIS_TYPE = 0
CLASSIFICATION_TYPE = U
NORAD_CAT_ID   = 67277
ELEMENT_SET_NO = 999
REV_AT_EPOCH   = 168
BSTAR          = .38429936E-3
MEAN_MOTION_DOT = .826E-4
MEAN_MOTION_DDOT = 0

CCSDS_OMM_VERS = 2.0
CREATION_DATE  = 
ORIGINATOR     = 

OBJECT_NAME    = 2025-313AG
OBJECT_ID      = 2025-313AG
CENTER_NAME    = EARTH
REF_FRAME      = TEME
TIME_SYSTEM    = UTC
MEAN_ELEMENT_THEORY = SGP/SGP4

EPOCH          = 2026-01-08T11:21:02.042784
MEAN_MOTION    = 15.20126006
ECCENTRICITY   = .00138326
INCLINATION    = 97.4096
RA_OF_ASC_NODE = 85.7523
ARG_OF_PERICENTER = 202.1263
MEAN_ANOMALY   = 157.9377

EPHEMERIS_TYPE = 0
CLASSIFICATION_TYPE = U
NORAD_CAT_ID   = 67278
ELEMENT_SET_NO = 999
REV_AT_EPOCH   = 167
BSTAR          = .37284232E-3
MEAN_MOTION_DOT = .8014E-4
MEAN_MOTION_DDOT = 0

CCSDS_OMM_VERS = 2.0
CREATION_DATE  = 
ORIGINATOR     = 

OBJECT_NAME    = GALAPAGOS-UTE-SWSU
OBJECT_ID      = 2025-313AH
CENTER_NAME    = EARTH
REF_FRAME      = TEME
TIME_SYSTEM    = UTC
MEAN_ELEMENT_THEORY = SGP/SGP4

EPOCH          = 2026-01-08T11:20:35.960352
MEAN_MOTION    = 15.20188952
ECCENTRICITY   = .00143793
INCLINATION    = 97.4109
RA_OF_ASC_NODE = 85.7537
ARG_OF_PERICENTER = 199.1905
MEAN_ANOMALY   = 160.8791

EPHEMERIS_TYPE = 0
CLASSIFICATION_TYPE = U
NORAD_CAT_ID   = 67279
ELEMENT_SET_NO = 999
REV_AT_EPOCH   = 166
BSTAR          = .42376221E-3
MEAN_MOTION_DOT = .9138E-4
MEAN_MOTION_DDOT = 0

CCSDS_OMM_VERS = 2.0
CREATION_DATE  = 
ORIGINATOR     = 

OBJECT_NAME    = 2025-313AJ
OBJECT_ID      = 2025-313AJ
CENTER_NAME    = EARTH
REF_FRAME      = TEME
TIME_SYSTEM    = UTC
MEAN_ELEMENT_THEORY = SGP/SGP4

EPOCH          = 2026-01-08T12:51:39.552480
MEAN_MOTION    = 15.20507390
ECCENTRICITY   = .00133034
INCLINATION    = 97.4176
RA_OF_ASC_NODE = 85.8195
ARG_OF_PERICENTER = 195.3334
MEAN_ANOMALY   = 164.7501

EPHEMERIS_TYPE = 0
CLASSIFICATION_TYPE = U
NORAD_CAT_ID   = 67280
ELEMENT_SET_NO = 999
REV_AT_EPOCH   = 167
BSTAR          = .27951853E-3
MEAN_MOTION_DOT = .6055E-4
MEAN_MOTION_DDOT = 0

CCSDS_OMM_VERS = 2.0
CREATION_DATE  = 
ORIGINATOR     = 

OBJECT_NAME    = 2025-313AK
OBJECT_ID      = 2025-313AK
CENTER_NAME    = EARTH
REF_FRAME      = TEME
TIME_SYSTEM    = UTC
MEAN_ELEMENT_THEORY = SGP/SGP4

EPOCH          = 2026-01-08T12:50:43.474560
MEAN_MOTION    = 15.20598405
ECCENTRICITY   = .00120243
INCLINATION    = 97.4059
RA_OF_ASC_NODE = 85.8145
ARG_OF_PERICENTER = 193.9971
MEAN_ANOMALY   = 166.0933

EPHEMERIS_TYPE = 0
CLASSIFICATION_TYPE = U
NORAD_CAT_ID   = 67281
ELEMENT_SET_NO = 999
REV_AT_EPOCH   = 167
BSTAR          = .27933434E-3
MEAN_MOTION_DOT = .6065E-4
MEAN_MOTION_DDOT = 0

CCSDS_OMM_VERS = 2.0
CREATION_DATE  = 
ORIGINATOR     = 

OBJECT_NAME    = 2025-313AL
OBJECT_ID      = 2025-313AL
CENTER_NAME    = EARTH
REF_FRAME      = TEME
TIME_SYSTEM    = UTC
MEAN_ELEMENT_THEORY = SGP/SGP4

EPOCH          = 2026-01-08T12:47:01.563936
MEAN_MOTION    = 15.20975264
ECCENTRICITY   = .00107886
INCLINATION    = 97.4109
RA_OF_ASC_NODE = 85.8131
ARG_OF_PERICENTER = 192.7851
MEAN_ANOMALY   = 167.3113

EPHEMERIS_TYPE = 0
CLASSIFICATION_TYPE = U
NORAD_CAT_ID   = 67282
ELEMENT_SET_NO = 999
REV_AT_EPOCH   = 167
BSTAR          = .31233367E-3
MEAN_MOTION_DOT = .6863E-4
MEAN_MOTION_DDOT = 0

CCSDS_OMM_VERS = 2.0
CREATION_DATE  = 
ORIGINATOR     = 

OBJECT_NAME    = 2025-313AM
OBJECT_ID      = 2025-313AM
CENTER_NAME    = EARTH
REF_FRAME      = TEME
TIME_SYSTEM    = UTC
MEAN_ELEMENT_THEORY = SGP/SGP4

EPOCH          = 2026-01-08T11:11:49.918272
MEAN_MOTION    = 15.21063435
ECCENTRICITY   = .0010724
INCLINATION    = 97.4118
RA_OF_ASC_NODE = 85.7501
ARG_OF_PERICENTER = 192.8841
MEAN_ANOMALY   = 167.2123

EPHEMERIS_TYPE = 0
CLASSIFICATION_TYPE = U
NORAD_CAT_ID   = 67283
ELEMENT_SET_NO = 999
REV_AT_EPOCH   = 166
BSTAR          = .46416449E-3
MEAN_MOTION_DOT = .10264E-3
MEAN_MOTION_DDOT = 0

CCSDS_OMM_VERS = 2.0
CREATION_DATE  = 
ORIGINATOR     = 

OBJECT_NAME    = 2025-313AN
OBJECT_ID      = 2025-313AN
CENTER_NAME    = EARTH
REF_FRAME      = TEME
TIME_SYSTEM    = UTC
MEAN_ELEMENT_THEORY = SGP/SGP4

EPOCH          = 2026-01-08T12:46:56.379936
MEAN_MOTION    = 15.20949645
ECCENTRICITY   = .00106487
INCLINATION    = 97.4103
RA_OF_ASC_NODE = 85.8120
ARG_OF_PERICENTER = 192.9561
MEAN_ANOMALY   = 167.1403

EPHEMERIS_TYPE = 0
CLASSIFICATION_TYPE = U
NORAD_CAT_ID   = 67284
ELEMENT_SET_NO = 999
REV_AT_EPOCH   = 167
BSTAR          = .19703579E-3
MEAN_MOTION_DOT = .4299E-4
MEAN_MOTION_DDOT = 0

CCSDS_OMM_VERS = 2.0
CREATION_DATE  = 
ORIGINATOR     = 

OBJECT_NAME    = 2025-313AP
OBJECT_ID      = 2025-313AP
CENTER_NAME    = EARTH
REF_FRAME      = TEME
TIME_SYSTEM    = UTC
MEAN_ELEMENT_THEORY = SGP/SGP4

EPOCH          = 2026-01-08T12:45:48.150720
MEAN_MOTION    = 15.21135072
ECCENTRICITY   = .00103179
INCLINATION    = 97.4095
RA_OF_ASC_NODE = 85.8115
ARG_OF_PERICENTER = 194.3005
MEAN_ANOMALY   = 165.7941

EPHEMERIS_TYPE = 0
CLASSIFICATION_TYPE = U
NORAD_CAT_ID   = 67285
ELEMENT_SET_NO = 999
REV_AT_EPOCH   = 167
BSTAR          = .45043867E-3
MEAN_MOTION_DOT = .9978E-4
MEAN_MOTION_DDOT = 0

